{
    "links": {
        "self": "http://www.neowsapp.com/rest/v1/neo/3465187?api_key=iIulBulltgU6a56xZRHN4H3l9WmuAYTsLGpBGhQ2"
    },
    "id": "3465187",
    "neo_reference_id": "3465187",
    "name": "(2009 OZ4)",
    "designation": "2009 OZ4",
    "nasa_jpl_url": "http://ssd.jpl.nasa.gov/sbdb.cgi?sstr=3465187",
    "absolute_magnitude_h": 19.3,
    "estimated_diameter": {
        "kilometers": {
            "estimated_diameter_min": 0.3669061375,
            "estimated_diameter_max": 0.8204270649
        },
        "meters": {
            "estimated_diameter_min": 366.9061375314,
            "estimated_diameter_max": 820.4270648822
        },
        "miles": {
            "estimated_diameter_min": 0.2279848336,
            "estimated_diameter_max": 0.5097895857
        },
        "feet": {
            "estimated_diameter_min": 1203.7603322587,
            "estimated_diameter_max": 2691.6899315481
        }
    },
    "is_potentially_hazardous_asteroid": false,
    "close_approach_data": [
        {
            "close_approach_date": "2009-08-17",
            "close_approach_date_full": "2009-Aug-17 16:15",
            "epoch_date_close_approach": 1250525700000,
            "relative_velocity": {
                "kilometers_per_second": "24.058761428",
                "kilometers_per_hour": "86611.5411409303",
                "miles_per_hour": "53817.0434383742"
            },
            "miss_distance": {
                "astronomical": "0.1591869007",
                "lunar": "61.9237043723",
                "kilometers": "23814021.276621509",
                "miles": "14797346.6592104642"
            },
            "orbiting_body": "Earth"
        }
    ],
    "orbital_data": {
        "orbit_id": "21",
        "orbit_determination_date": "2017-04-06 09:00:21",
        "first_observation_date": "2009-07-25",
        "last_observation_date": "2009-08-28",
        "data_arc_in_days": 34,
        "observations_used": 124,
        "orbit_uncertainty": "7",
        "minimum_orbit_intersection": ".148715",
        "jupiter_tisserand_invariant": "2.811",
        "epoch_osculation": "2459000.5",
        "eccentricity": ".6417567932988644",
        "semi_major_axis": "2.675177046684956",
        "inclination": "38.07673569784156",
        "ascending_node_longitude": "140.0596481131863",
        "orbital_period": "1598.185628813497",
        "perihelion_distance": ".9583640036976924",
        "perihelion_argument": "240.2092960080182",
        "aphelion_distance": "4.391990089672221",
        "perihelion_time": "2458308.380971379913",
        "mean_anomaly": "155.9035732840442",
        "mean_motion": ".2252554356074809",
        "equinox": "J2000",
        "orbit_class": {
            "orbit_class_type": "APO",
            "orbit_class_description": "Near-Earth asteroid orbits which cross the Earth’s orbit similar to that of 1862 Apollo",
            "orbit_class_range": "a (semi-major axis) > 1.0 AU; q (perihelion) < 1.017 AU"
        }
    },
    "is_sentry_object": false
}